STARLINK-36893          
1 68112U 26044M   26094.25002315 -.01796435  00000+0 -36281-1 0  9990
2 68112  97.2855  55.5520 0001844  98.9442  33.5262 15.49893573  5517
STARLINK-36937          
1 68113U 26044N   26094.25002315 -.01011429  00000+0 -19846-1 0  9992
2 68113  97.2851  55.5547 0001482 108.6190  36.7799 15.49949091  5461
STARLINK-36229          
1 68114U 26044P   26094.25002315 -.01269679  00000+0 -25109-1 0  9994
2 68114  97.2853  55.5510 0001894  96.2240  43.0905 15.49902754  5510
STARLINK-36392          
1 68115U 26044Q   26094.25002315  .00026674  00000+0  49103-3 0  9990
2 68115  97.2856  55.5329 0001854 116.9786 334.3303 15.49153874  5512
STARLINK-36805          
1 68116U 26044R   26094.25002315  .00089451  00000+0  16308-2 0  9993
2 68116  97.2856  55.5467 0001835 112.2002  11.2411 15.49134151  5513
STARLINK-36844          
1 68117U 26044S   26094.25002315 -.01772785  00000+0 -34478-1 0  9993
2 68117  97.2854  55.5681 0002168  98.3394  77.6256 15.50902718  5469
STARLINK-36789          
1 68118U 26044T   26094.25002315 -.01848737  00000+0 -35040-1 0  9991
2 68118  97.2849  55.5749 0001961 106.1356  88.7464 15.51770888  5461
STARLINK-36850          
1 68119U 26044U   26094.25002315 -.02082591  00000+0 -39106-1 0  9998
2 68119  97.2853  55.5766 0002360 102.8011  94.3300 15.51874656  5461
STARLINK-36868          
1 68120U 26044V   26094.25002315 -.01848888  00000+0 -34340-1 0  9993
2 68120  97.2851  55.5841 0002020 108.7364 107.2081 15.52332041  5462
STARLINK-36855          
1 68121U 26044W   26094.25002315 -.01848536  00000+0 -36126-1 0  9998
2 68121  97.2853  55.5753 0002013 102.9726  87.9186 15.50916447  5463
STARLINK-36366          
1 68122U 26044X   26094.25002315 -.02214533  00000+0 -42559-1 0  9991
2 68122  97.2851  55.5793 0002313 112.7409  86.3968 15.51447093  5510
STARLINK-36922          
1 68123U 26044Y   26094.25002315 -.02045335  00000+0 -38461-1 0  9991
2 68123  97.2851  55.5878 0002207 102.4940 120.9458 15.51775633  5516
