CCSDS_OMM_VERS = 2.0
CREATION_DATE  = 
ORIGINATOR     = 

OBJECT_NAME    = STARLINK-36893
OBJECT_ID      = 2026-044M
CENTER_NAME    = EARTH
REF_FRAME      = TEME
TIME_SYSTEM    = UTC
MEAN_ELEMENT_THEORY = SGP/SGP4

EPOCH          = 2026-04-04T06:00:02.000160
MEAN_MOTION    = 15.49893573
ECCENTRICITY   = .00018444
INCLINATION    = 97.2855
RA_OF_ASC_NODE = 55.5520
ARG_OF_PERICENTER = 98.9442
MEAN_ANOMALY   = 33.5262

EPHEMERIS_TYPE = 0
CLASSIFICATION_TYPE = U
NORAD_CAT_ID   = 68112
ELEMENT_SET_NO = 999
REV_AT_EPOCH   = 551
BSTAR          = -.36280714E-1
MEAN_MOTION_DOT = -.1796435E-1
MEAN_MOTION_DDOT = 0

CCSDS_OMM_VERS = 2.0
CREATION_DATE  = 
ORIGINATOR     = 

OBJECT_NAME    = STARLINK-36937
OBJECT_ID      = 2026-044N
CENTER_NAME    = EARTH
REF_FRAME      = TEME
TIME_SYSTEM    = UTC
MEAN_ELEMENT_THEORY = SGP/SGP4

EPOCH          = 2026-04-04T06:00:02.000160
MEAN_MOTION    = 15.49949091
ECCENTRICITY   = .00014825
INCLINATION    = 97.2851
RA_OF_ASC_NODE = 55.5547
ARG_OF_PERICENTER = 108.6190
MEAN_ANOMALY   = 36.7799

EPHEMERIS_TYPE = 0
CLASSIFICATION_TYPE = U
NORAD_CAT_ID   = 68113
ELEMENT_SET_NO = 999
REV_AT_EPOCH   = 546
BSTAR          = -.19846071E-1
MEAN_MOTION_DOT = -.1011429E-1
MEAN_MOTION_DDOT = 0

CCSDS_OMM_VERS = 2.0
CREATION_DATE  = 
ORIGINATOR     = 

OBJECT_NAME    = STARLINK-36229
OBJECT_ID      = 2026-044P
CENTER_NAME    = EARTH
REF_FRAME      = TEME
TIME_SYSTEM    = UTC
MEAN_ELEMENT_THEORY = SGP/SGP4

EPOCH          = 2026-04-04T06:00:02.000160
MEAN_MOTION    = 15.49902754
ECCENTRICITY   = .00018948
INCLINATION    = 97.2853
RA_OF_ASC_NODE = 55.5510
ARG_OF_PERICENTER = 96.2240
MEAN_ANOMALY   = 43.0905

EPHEMERIS_TYPE = 0
CLASSIFICATION_TYPE = U
NORAD_CAT_ID   = 68114
ELEMENT_SET_NO = 999
REV_AT_EPOCH   = 551
BSTAR          = -.25108571E-1
MEAN_MOTION_DOT = -.1269679E-1
MEAN_MOTION_DDOT = 0

CCSDS_OMM_VERS = 2.0
CREATION_DATE  = 
ORIGINATOR     = 

OBJECT_NAME    = STARLINK-36392
OBJECT_ID      = 2026-044Q
CENTER_NAME    = EARTH
REF_FRAME      = TEME
TIME_SYSTEM    = UTC
MEAN_ELEMENT_THEORY = SGP/SGP4

EPOCH          = 2026-04-04T06:00:02.000160
MEAN_MOTION    = 15.49153874
ECCENTRICITY   = .0001854
INCLINATION    = 97.2856
RA_OF_ASC_NODE = 55.5329
ARG_OF_PERICENTER = 116.9786
MEAN_ANOMALY   = 334.3303

EPHEMERIS_TYPE = 0
CLASSIFICATION_TYPE = U
NORAD_CAT_ID   = 68115
ELEMENT_SET_NO = 999
REV_AT_EPOCH   = 551
BSTAR          = .4910317E-3
MEAN_MOTION_DOT = .26674E-3
MEAN_MOTION_DDOT = 0

CCSDS_OMM_VERS = 2.0
CREATION_DATE  = 
ORIGINATOR     = 

OBJECT_NAME    = STARLINK-36805
OBJECT_ID      = 2026-044R
CENTER_NAME    = EARTH
REF_FRAME      = TEME
TIME_SYSTEM    = UTC
MEAN_ELEMENT_THEORY = SGP/SGP4

EPOCH          = 2026-04-04T06:00:02.000160
MEAN_MOTION    = 15.49134151
ECCENTRICITY   = .00018353
INCLINATION    = 97.2856
RA_OF_ASC_NODE = 55.5467
ARG_OF_PERICENTER = 112.2002
MEAN_ANOMALY   = 11.2411

EPHEMERIS_TYPE = 0
CLASSIFICATION_TYPE = U
NORAD_CAT_ID   = 68116
ELEMENT_SET_NO = 999
REV_AT_EPOCH   = 551
BSTAR          = .16308476E-2
MEAN_MOTION_DOT = .89451E-3
MEAN_MOTION_DDOT = 0

CCSDS_OMM_VERS = 2.0
CREATION_DATE  = 
ORIGINATOR     = 

OBJECT_NAME    = STARLINK-36844
OBJECT_ID      = 2026-044S
CENTER_NAME    = EARTH
REF_FRAME      = TEME
TIME_SYSTEM    = UTC
MEAN_ELEMENT_THEORY = SGP/SGP4

EPOCH          = 2026-04-04T06:00:02.000160
MEAN_MOTION    = 15.50902718
ECCENTRICITY   = .0002168
INCLINATION    = 97.2854
RA_OF_ASC_NODE = 55.5681
ARG_OF_PERICENTER = 98.3394
MEAN_ANOMALY   = 77.6256

EPHEMERIS_TYPE = 0
CLASSIFICATION_TYPE = U
NORAD_CAT_ID   = 68117
ELEMENT_SET_NO = 999
REV_AT_EPOCH   = 546
BSTAR          = -.34478112E-1
MEAN_MOTION_DOT = -.1772785E-1
MEAN_MOTION_DDOT = 0

CCSDS_OMM_VERS = 2.0
CREATION_DATE  = 
ORIGINATOR     = 

OBJECT_NAME    = STARLINK-36789
OBJECT_ID      = 2026-044T
CENTER_NAME    = EARTH
REF_FRAME      = TEME
TIME_SYSTEM    = UTC
MEAN_ELEMENT_THEORY = SGP/SGP4

EPOCH          = 2026-04-04T06:00:02.000160
MEAN_MOTION    = 15.51770888
ECCENTRICITY   = .00019619
INCLINATION    = 97.2849
RA_OF_ASC_NODE = 55.5749
ARG_OF_PERICENTER = 106.1356
MEAN_ANOMALY   = 88.7464

EPHEMERIS_TYPE = 0
CLASSIFICATION_TYPE = U
NORAD_CAT_ID   = 68118
ELEMENT_SET_NO = 999
REV_AT_EPOCH   = 546
BSTAR          = -.35040143E-1
MEAN_MOTION_DOT = -.1848737E-1
MEAN_MOTION_DDOT = 0

CCSDS_OMM_VERS = 2.0
CREATION_DATE  = 
ORIGINATOR     = 

OBJECT_NAME    = STARLINK-36850
OBJECT_ID      = 2026-044U
CENTER_NAME    = EARTH
REF_FRAME      = TEME
TIME_SYSTEM    = UTC
MEAN_ELEMENT_THEORY = SGP/SGP4

EPOCH          = 2026-04-04T06:00:02.000160
MEAN_MOTION    = 15.51874656
ECCENTRICITY   = .00023607
INCLINATION    = 97.2853
RA_OF_ASC_NODE = 55.5766
ARG_OF_PERICENTER = 102.8011
MEAN_ANOMALY   = 94.3300

EPHEMERIS_TYPE = 0
CLASSIFICATION_TYPE = U
NORAD_CAT_ID   = 68119
ELEMENT_SET_NO = 999
REV_AT_EPOCH   = 546
BSTAR          = -.39105515E-1
MEAN_MOTION_DOT = -.2082591E-1
MEAN_MOTION_DDOT = 0

CCSDS_OMM_VERS = 2.0
CREATION_DATE  = 
ORIGINATOR     = 

OBJECT_NAME    = STARLINK-36868
OBJECT_ID      = 2026-044V
CENTER_NAME    = EARTH
REF_FRAME      = TEME
TIME_SYSTEM    = UTC
MEAN_ELEMENT_THEORY = SGP/SGP4

EPOCH          = 2026-04-04T06:00:02.000160
MEAN_MOTION    = 15.52332041
ECCENTRICITY   = .00020201
INCLINATION    = 97.2851
RA_OF_ASC_NODE = 55.5841
ARG_OF_PERICENTER = 108.7364
MEAN_ANOMALY   = 107.2081

EPHEMERIS_TYPE = 0
CLASSIFICATION_TYPE = U
NORAD_CAT_ID   = 68120
ELEMENT_SET_NO = 999
REV_AT_EPOCH   = 546
BSTAR          = -.34340372E-1
MEAN_MOTION_DOT = -.1848888E-1
MEAN_MOTION_DDOT = 0

CCSDS_OMM_VERS = 2.0
CREATION_DATE  = 
ORIGINATOR     = 

OBJECT_NAME    = STARLINK-36855
OBJECT_ID      = 2026-044W
CENTER_NAME    = EARTH
REF_FRAME      = TEME
TIME_SYSTEM    = UTC
MEAN_ELEMENT_THEORY = SGP/SGP4

EPOCH          = 2026-04-04T06:00:02.000160
MEAN_MOTION    = 15.50916447
ECCENTRICITY   = .00020131
INCLINATION    = 97.2853
RA_OF_ASC_NODE = 55.5753
ARG_OF_PERICENTER = 102.9726
MEAN_ANOMALY   = 87.9186

EPHEMERIS_TYPE = 0
CLASSIFICATION_TYPE = U
NORAD_CAT_ID   = 68121
ELEMENT_SET_NO = 999
REV_AT_EPOCH   = 546
BSTAR          = -.36126016E-1
MEAN_MOTION_DOT = -.1848536E-1
MEAN_MOTION_DDOT = 0

CCSDS_OMM_VERS = 2.0
CREATION_DATE  = 
ORIGINATOR     = 

OBJECT_NAME    = STARLINK-36366
OBJECT_ID      = 2026-044X
CENTER_NAME    = EARTH
REF_FRAME      = TEME
TIME_SYSTEM    = UTC
MEAN_ELEMENT_THEORY = SGP/SGP4

EPOCH          = 2026-04-04T06:00:02.000160
MEAN_MOTION    = 15.51447093
ECCENTRICITY   = .00023134
INCLINATION    = 97.2851
RA_OF_ASC_NODE = 55.5793
ARG_OF_PERICENTER = 112.7409
MEAN_ANOMALY   = 86.3968

EPHEMERIS_TYPE = 0
CLASSIFICATION_TYPE = U
NORAD_CAT_ID   = 68122
ELEMENT_SET_NO = 999
REV_AT_EPOCH   = 551
BSTAR          = -.42559241E-1
MEAN_MOTION_DOT = -.2214533E-1
MEAN_MOTION_DDOT = 0

CCSDS_OMM_VERS = 2.0
CREATION_DATE  = 
ORIGINATOR     = 

OBJECT_NAME    = STARLINK-36922
OBJECT_ID      = 2026-044Y
CENTER_NAME    = EARTH
REF_FRAME      = TEME
TIME_SYSTEM    = UTC
MEAN_ELEMENT_THEORY = SGP/SGP4

EPOCH          = 2026-04-04T06:00:02.000160
MEAN_MOTION    = 15.51775633
ECCENTRICITY   = .00022078
INCLINATION    = 97.2851
RA_OF_ASC_NODE = 55.5878
ARG_OF_PERICENTER = 102.4940
MEAN_ANOMALY   = 120.9458

EPHEMERIS_TYPE = 0
CLASSIFICATION_TYPE = U
NORAD_CAT_ID   = 68123
ELEMENT_SET_NO = 999
REV_AT_EPOCH   = 551
BSTAR          = -.38461395E-1
MEAN_MOTION_DOT = -.2045335E-1
MEAN_MOTION_DDOT = 0

